[
    {
        "nameTH": "อุทยานแห่งชาติเขาใหญ่",
        "nameEN": "Khao Yai National Park",
        "lat": 14.35,
        "long": 101.44,
        "region": "Central-East",
        "provinces": ["Nakhon Ratchasima", "Nakhon Nayok", "Prachinburi", "Saraburi"]
    },
    {
        "nameTH": "อุทยานแห่งชาติดอยอินทนนท์",
        "nameEN": "Doi Inthanon National Park",
        "lat": 18.59,
        "long": 98.48,
        "region": "North",
        "provinces": ["Chiang Mai"]
    },
    {
      "nameTH": "อุทยานแห่งชาติดอยผ้าห่มปก",
      "nameEN": "Doi Pha Hom Pok National Park",
      "lat": 19.98,
      "long": 99.14,
      "region": "North",
      "provinces": ["Chiang Mai"]
  },
  {
      "nameTH": "อุทยานแห่งชาติดอยสุเทพ-ปุย",
      "nameEN": "Doi Suthep–Pui National Park",
      "lat": 18.80,
      "long": 98.91,
      "region": "North",
      "provinces": ["Chiang Mai"]
  },
  {
      "nameTH": "อุทยานแห่งชาติขุนขาน",
      "nameEN": "Khun Khan National Park",
      "lat": 18.85,
      "long": 98.62,
      "region": "North",
      "provinces": ["Chiang Mai"]
  },
  {
      "nameTH": "อุทยานแห่งชาติแม่ตะไคร้",
      "nameEN": "Mae Takhrai National Park",
      "lat": 18.96,
      "long": 99.24,
      "region": "North",
      "provinces": ["Chiang Mai", "Lamphun"]
  },
  {
      "nameTH": "อุทยานแห่งชาติแม่วาง",
      "nameEN": "Mae Wang National Park",
      "lat": 18.52,
      "long": 98.71,
      "region": "North",
      "provinces": ["Chiang Mai"]
  },
  {
      "nameTH": "อุทยานแห่งชาติออบหลวง",
      "nameEN": "Op Luang National Park",
      "lat": 18.22,
      "long": 98.48,
      "region": "North",
      "provinces": ["Chiang Mai"]
  },
  {
      "nameTH": "อุทยานแห่งชาติผาแดง",
      "nameEN": "Pha Daeng National Park",
      "lat": 19.62,
      "long": 98.95,
      "region": "North",
      "provinces": ["Chiang Mai"]
  },
  {
      "nameTH": "อุทยานแห่งชาติศรีลานนา",
      "nameEN": "Si Lanna National Park",
      "lat": 19.28,
      "long": 99.09,
      "region": "North",
      "provinces": ["Chiang Mai"]
  },
  {
      "nameTH": "อุทยานแห่งชาติดอยหลวง",
      "nameEN": "Doi Luang National Park",
      "lat": 19.20,
      "long": 99.71,
      "region": "North",
      "provinces": ["Chiang Rai", "Lampang", "Phayao"]
  },
  {
      "nameTH": "อุทยานแห่งชาติขุนแจ",
      "nameEN": "Khun Chae National Park",
      "lat": 19.15,
      "long": 99.46,
      "region": "North",
      "provinces": ["Chiang Rai"]
  },
  {
      "nameTH": "อุทยานแห่งชาติแม่ปิง",
      "nameEN": "Mae Ping National Park",
      "lat": 17.56,
      "long": 98.80,
      "region": "North",
      "provinces": ["Chiang Mai", "Tak", "Lamphun"]
  },
  {
      "nameTH": "อุทยานแห่งชาติห้วยน้ำดัง",
      "nameEN": "Huai Nam Dang National Park",
      "lat": 19.62,
      "long": 99.02,
      "region": "North",
      "provinces": ["Chiang Mai", "Mae Hong Son"]
  },
  {
      "nameTH": "อุทยานแห่งชาติน้ำตกแม่สุรินทร์",
      "nameEN": "Namtok Mae Surin National Park",
      "lat": 19.14,
      "long": 98.03,
      "region": "North",
      "provinces": ["Mae Hong Son"]
  },
  {
      "nameTH": "อุทยานแห่งชาติสาละวิน",
      "nameEN": "Salawin National Park",
      "lat": 18.09,
      "long": 97.75,
      "region": "North",
      "provinces": ["Mae Hong Son"]
  },
  {
      "nameTH": "อุทยานแห่งชาติถ้ำปลา–น้ำตกผาเสื่อ",
      "nameEN": "Tham Pla–Namtok Pha Suea National Park",
      "lat": 19.50,
      "long": 98.00,
      "region": "North",
      "provinces": ["Mae Hong Son"]
  },
  {
      "nameTH": "อุทยานแห่งชาติดอยภูนาง",
      "nameEN": "Doi Phu Nang National Park",
      "lat": 19.00,
      "long": 100.16,
      "region": "North",
      "provinces": ["Phayao"]
  },
  {
      "nameTH": "อุทยานแห่งชาติแม่ปืม",
      "nameEN": "Mae Puem National Park",
      "lat": 19.35,
      "long": 99.88,
      "region": "North",
      "provinces": ["Phayao", "Chiang Rai"]
  },
  {
      "nameTH": "อุทยานแห่งชาติภูซาง",
      "nameEN": "Phu Sang National Park",
      "lat": 19.53,
      "long": 100.45,
      "region": "North",
      "provinces": ["Phayao", "Chiang Rai"]
  },
  {
    "nameTH": "อุทยานแห่งชาติหมู่เกาะชุมพร",
    "nameEN": "Mu Ko Chumphon National Park",
    "lat": 10.25,
    "long": 99.21,
    "region": "South",
    "provinces": ["Chumphon"]
  },
  {
    "nameTH": "อุทยานแห่งชาติเขาหลวง",
    "nameEN": "Khao Luang National Park",
    "lat": 8.36,
    "long": 99.73,
    "region": "South",
    "provinces": ["Nakhon Si Thammarat"]
  },
  {
    "nameTH": "อุทยานแห่งชาติเขานัน",
    "nameEN": "Khao Nan National Park",
    "lat": 8.77,
    "long": 99.8,
    "region": "South",
    "provinces": ["Nakhon Si Thammarat"]
  },
  {
    "nameTH": "อุทยานแห่งชาติน้ำตกสี่ขีด",
    "nameEN": "Namtok Si Khit National Park",
    "lat": 9.01,
    "long": 99.77,
    "region": "South",
    "provinces": ["Nakhon Si Thammarat", "Surat Thani"]
  },
  {
    "nameTH": "อุทยานแห่งชาติน้ำตกโยง",
    "nameEN": "Namtok Yong National Park",
    "lat": 8.17,
    "long": 99.74,
    "region": "South",
    "provinces": ["Nakhon Si Thammarat"]
  },
  {
    "nameTH": "อุทยานแห่งชาติบูโด-สุไหงปาดี",
    "nameEN": "Budo–Su-ngai Padi National Park",
    "lat": 6.46,
    "long": 101.63,
    "region": "South",
    "provinces": ["Narathiwat", "Pattani", "Yala"]
  },
  {
    "nameTH": "อุทยานแห่งชาติน้ำตกทรายขาว",
    "nameEN": "Namtok Sai Khao National Park",
    "lat": 6.65,
    "long": 101.09,
    "region": "South",
    "provinces": ["Pattani", "Yala", "Songkhla"]
  },
  {
    "nameTH": "อุทยานแห่งชาติเขาปู่-เขาย่า",
    "nameEN": "Khao Pu–Khao Ya National Park",
    "lat": 7.77,
    "long": 99.76,
    "region": "South",
    "provinces": ["Phattalung"]
  },
  {
    "nameTH": "อุทยานแห่งชาติน้ำตกหงาว",
    "nameEN": "Namtok Ngao National Park",
    "lat": 9.85,
    "long": 98.62,
    "region": "South",
    "provinces": ["Ranong", "Chumphon"]
  },
  {
    "nameTH": "อุทยานแห่งชาติเขาน้ำค้าง",
    "nameEN": "Khao Nam Khang National Park",
    "lat": 6.55,
    "long": 100.59,
    "region": "South",
    "provinces": ["Songkhla"]
  },
  {
    "nameTH": "อุทยานแห่งชาติแก่งกรุง",
    "nameEN": "Kaeng Krung National Park",
    "lat": 9.3,
    "long": 98.86,
    "region": "South",
    "provinces": ["Surat Thani"]
  },
  {
    "nameTH": "อุทยานแห่งชาติใต้ร่มเย็น",
    "nameEN": "Tai Romyen National Park",
    "lat": 8.86,
    "long": 99.45,
    "region": "South",
    "provinces": ["Surat Thani"]
  },
  {
    "nameTH": "อุทยานแห่งชาติธารเสด็จ-เกาะพะงัน",
    "nameEN": "Than Sadet–Ko Pha-Ngan National Park",
    "lat": 9.73,
    "long": 100.02,
    "region": "South",
    "provinces": ["Surat Thani"]
  },
  {
    "nameTH": "อุทยานแห่งชาติบางลาง",
    "nameEN": "Bang Lang National Park",
    "lat": 6.19,
    "long": 101.17,
    "region": "South",
    "provinces": ["Yala"]
  }
]
